{"type":"FeatureCollection","features":[{"type":"Feature","properties":{"name":"vietnam-mask"},"geometry":{"type":"Polygon","coordinates":[[[-180,85.05],[180,85.05],[180,-85.05],[-180,-85.05],[-180,85.05]],[[106.76636054991242,20.845876826587592],[106.80649371464452,20.807307380841046],[106.78045642327105,20.811658653691964],[106.74768370153947,20.861061880822415],[106.76636054991242,20.845876826587592]],[[107.3454531458223,20.88798353155648],[107.3816965259917,20.88748032313154],[107.38859372432785,20.86559075664684],[107.36095345935387,20.85915264885722],[107.3454531458223,20.88798353155648]],[[106.84072234817839,20.880539006916987],[106.88606885365711,20.795541183846225],[106.84695776842258,20.797332013829084],[106.81996457536074,20.842591171577716],[106.7708532878478,20.858101831263973],[106.78475062777885,20.930193838259907],[106.82518526919728,20.914771980060408],[106.84072234817839,20.880539006916987]],[[107.47762493696548,20.81390829135638],[107.47006596053737,20.88349905647543],[107.51665513821098,20.895087650496745],[107.54958227483068,20.955901868675006],[107.54461158605112,20.919197254150284],[107.47762493696548,20.81390829135638]],[[106.762117817034,20.979493463655814],[106.76028689764625,20.946799716282786],[106.6937046685057,20.96111155589787],[106.69252817412001,20.98565036673738],[106.762117817034,20.979493463655814]],[[107.79244748148814,20.991600066349857],[107.7377993172725,20.938008369094206],[107.75891739149577,20.982616315939975],[107.74508622937391,21.019616935420544],[107.79244748148814,20.991600066349857]],[[107.53215545174254,21.040633287285505],[107.55817803693618,21.034801989655367],[107.52918480341866,20.950766182691105],[107.49814741090599,20.91579319715807],[107.39488796929132,20.89683407973623],[107.4917134572342,20.964944820076056],[107.50424312244188,21.020608552022622],[107.53215545174254,21.040633287285505]],[[107.58137703560415,21.11755017506171],[107.57207537686723,21.083642807369714],[107.52229495817242,21.058497186370722],[107.55372206445035,21.113879713609236],[107.58137703560415,21.11755017506171]],[[107.58964926175358,21.00844274833741],[107.56657526561409,21.016967691065734],[107.59092134630812,21.081985179616986],[107.6320839436277,21.11131927074118],[107.58964926175358,21.00844274833741]],[[107.80930076356324,21.346865214354473],[107.71115907252637,21.307614957209488],[107.72599760796598,21.32371762680743],[107.78332229690908,21.356825781118637],[107.80930076356324,21.346865214354473]],[[107.99790016668042,21.398074071715577],[107.84133082321385,21.34904085077993],[107.86829460391606,21.389445527252708],[107.99801781611899,21.403520562903115],[107.99790016668042,21.398074071715577]],[[106.59318057633779,20.64721310047253],[106.62761509638916,20.616902192994047],[106.62154879721291,20.59106096034882],[106.51828200250834,20.54155413148382],[106.56731240603227,20.524770650487437],[106.57985677741976,20.478297872419844],[106.56226818635359,20.455283487102932],[106.5940114754977,20.448179368162663],[106.5729448729038,20.367947224881],[106.59223202773933,20.27507566998478],[106.58201123276358,20.26427148909645],[106.54906203687415,20.29182955048558],[106.52182619184526,20.313881919695994],[106.50291404459517,20.30041369420507],[106.54906203687415,20.29182955048558],[106.57012863946804,20.231666543210174],[106.50499496903987,20.217236301612754],[106.39512509959557,20.20450808851144],[106.36029351268903,20.184335350770635],[106.30479239004377,20.10841007959651],[106.25967383035228,20.0610196861658],[106.16099536375192,19.98398439640726],[106.10750898774216,19.96523248245451],[106.11375176107627,20.03337282328992],[106.08299378598021,19.96539528518022],[106.03416191588386,19.995676592163118],[105.95585150833588,19.925212612424325],[105.95699859036195,19.87612019049751],[105.93521873804673,19.848976536046564],[105.92913037960074,19.79310560063091],[105.86707765384513,19.77296246338569],[105.92904949561172,19.779459772166476],[105.89560028960837,19.72099879338718],[105.86679823642852,19.721146795865103],[105.82607682450357,19.64224667488474],[105.80790733933446,19.46098804017334],[105.78314948560545,19.39426852312598],[105.81289273429385,19.30687305991288],[105.80554699747316,19.27417931253985],[105.77234779652677,19.23614267571383],[105.74507518604833,19.23762270049305],[105.73186168347897,19.170858782702314],[105.73731767619263,19.108105732063272],[105.69560359712976,19.080991678107914],[105.6683898113706,19.08927981687156],[105.64390402196828,19.064815007271008],[105.61497696625995,18.99809549022365],[105.62902872107912,18.921681810872386],[105.6489776540066,18.892969330155463],[105.7161554834299,18.85454788688684],[105.68882404823218,18.82601300914343],[105.72031733231931,18.82317136156732],[105.7573254338394,18.772569314365697],[105.75111207286494,18.6621298653401],[105.76975215578832,18.671602023927125],[105.76727416448846,18.756155839564116],[105.78298036453751,18.747912101543847],[105.7912967092264,18.68924391929546],[105.82660624697714,18.593619518309882],[105.87909995584897,18.511566944549777],[105.91463008629702,18.473219502520116],[105.9489248976401,18.471680276749723],[105.97710929126745,18.401985909896126],[106.09781761523999,18.289518826922997],[106.10328831413348,18.251304587123467],[106.16618664522882,18.265927231942186],[106.27135053713033,18.203899393444964],[106.34642558511763,18.132473397599675],[106.30624830184607,18.100031254439116],[106.35032272277024,18.08336617542507],[106.37045548294549,18.105033738192887],[106.43477296039357,18.1236672501633],[106.4216918134426,18.09375594937521],[106.43845685843878,18.051368039698275],[106.51889966206083,17.956661254075815],[106.52448065730299,17.942985825115798],[106.45560426411032,17.882156806689743],[106.44250105788963,17.846799014714115],[106.48970789511573,17.701904588828214],[106.43594210168936,17.739127212025664],[106.37495557397078,17.76547165309583],[106.28533611414029,17.771539754690643],[106.34635205421851,17.746586536912947],[106.42876548593661,17.73100187598773],[106.38313956304128,17.719058076019405],[106.50377435611472,17.682708667441695],[106.61468836432631,17.518218713478888],[106.63415199331969,17.47033991187103],[106.7635663757464,17.33561325621839],[107.00726248156374,17.161532741686216],[107.11136752851812,17.088227114371318],[107.12663254317255,17.059440632415438],[107.12192656562975,17.01859194850889],[107.20005314592996,16.91416140008694],[107.14155196260117,16.875236748393384],[107.189685289156,16.874733539968446],[107.21697995890418,16.9085225056781],[107.4117853699059,16.74956784438958],[107.49728709938644,16.688576023237815],[107.60492162949791,16.59594127230627],[107.59636998593187,16.590583582605483],[107.47420575015704,16.653410634483485],[107.44303600202598,16.64833414949075],[107.56375903217834,16.582813452514564],[107.59492142721949,16.587875137259502],[107.60848052501464,16.545457627086982],[107.66367281788366,16.551584929672963],[107.6519814049258,16.52310925292072],[107.67281270864255,16.496942414824062],[107.69714408315676,16.519808797663053],[107.75849826537086,16.463123848618824],[107.82640405069532,16.37364155046702],[107.79402104272901,16.379532049088326],[107.81282289363043,16.312501726837333],[107.89699371383715,16.2786683603843],[107.93699452295085,16.312176121385903],[107.94472262044691,16.35703567244414],[108.0118857436904,16.319295040573962],[108.04334226232797,16.34609828932569],[108.05398953651853,16.305072002445634],[108.09382857765421,16.236369252194116],[108.05190861207383,16.261500072945317],[108.05432777865443,16.235570038813336],[108.20060279624613,16.21162323788551],[108.15484451773243,16.171440565129615],[108.14274868482947,16.119846901325914],[108.19694095747066,16.071346489310788],[108.2282357081302,16.089950400785614],[108.23889033541067,16.051647359499334],[108.19725714033682,16.00323574897096],[108.24969202448935,16.022875677791244],[108.24710373684081,16.12372456624748],[108.22460328171437,16.12678821754047],[108.24490516295755,16.161909205551424],[108.31775222470193,16.13489875333061],[108.31736986402659,16.111751165783566],[108.26515557257136,16.107103887976805],[108.25892015232716,16.070414073699876],[108.28295740324494,15.989678721993279],[108.30633287607075,15.955268145876351],[108.38844483110252,15.898139189398355],[108.41467330281365,15.867754280680913],[108.42348965761647,15.806318452095379],[108.4548432329953,15.747265463404394],[108.61835389333748,15.5294354163984],[108.68275960786448,15.517462015934488],[108.62161866525778,15.474896503284043],[108.65188398332985,15.4389911021401],[108.69771579274267,15.489977955784322],[108.70393650680704,15.444940801752576],[108.76202591710084,15.396307187507318],[108.78039393569753,15.325177196617876],[108.79570306889141,15.395729977843423],[108.82719635297855,15.429222938597231],[108.83882158812722,15.374565623500537],[108.88300630540006,15.335670572302565],[108.88630784276992,15.286592950623541],[108.95155180954674,15.250065939072325],[108.9101392071702,15.209942467307599],[108.91854378893802,15.057307511826362],[108.94233103479884,14.979295405713534],[109.01222950748908,14.821509964000604],[109.08046618185952,14.729097216785938],[109.09470911701636,14.667587386961443],[109.07801024982938,14.671968260307944],[109.08617953272005,14.584705999324974],[109.07487783352745,14.57809028856185],[109.12983482751933,14.451903375885323],[109.1288348072915,14.397468064505512],[109.15008523713314,14.338563078292449],[109.18158587431019,14.3053365219989],[109.20122597746142,14.235582954154134],[109.19118165664354,14.220782706361907],[109.23838114077972,14.132839633980495],[109.174938681031,14.172060290629897],[109.18405651252016,14.136510095432968],[109.22530734691865,14.10448235921059],[109.25327114784871,14.033219166091015],[109.26654347513735,13.921373693525158],[109.30750018593943,13.875744529581723],[109.30395599660253,13.75876337103196],[109.2704700251496,13.755255712305203],[109.27313184369726,13.82462447370737],[109.25204318183363,13.890322773657065],[109.2324766095815,13.810357034835665],[109.25833742679711,13.777248880524454],[109.22571176686374,13.743785520266227],[109.23743259218125,13.698659564747729],[109.25663886302776,13.605788009851505],[109.29510287635014,13.57790434301095],[109.29424256483061,13.530277145615562],[109.25239613014934,13.60177714269981],[109.21146147861698,13.647391506395454],[109.2448812722607,13.570593020601589],[109.2868968280099,13.508624383095535],[109.31358854438541,13.52314342617971],[109.30307362581324,13.479763899900693],[109.34036114474993,13.465511261276777],[109.31858129243471,13.414184001933336],[109.27700692208015,13.421687727563995],[109.29994856260123,13.460775181983266],[109.26292575490133,13.489990871125121],[109.23182953766937,13.46192960131106],[109.23199865873731,13.392501638917722],[109.27994815804439,13.352230164675074],[109.29427197719025,13.297543249082796],[109.25954333354245,13.298135258994485],[109.29455874769675,13.234938200921675],[109.3137209000038,13.297217643631367],[109.32138281969065,13.258973803336252],[109.30805166768273,13.132624087934012],[109.37015586506772,13.032234007159335],[109.4651871990724,12.913580420609053],[109.45855471197304,12.852455397227157],[109.41717887504605,12.865405614045354],[109.38471498309072,12.833289076336222],[109.376795705257,12.776263721592773],[109.42107601269868,12.691162296787468],[109.47174615527267,12.656292912988981],[109.45065749340905,12.638947022576492],[109.45087073301646,12.570910283475625],[109.43016443182819,12.5753355575655],[109.40336977219393,12.628853253582193],[109.42456873040621,12.652992457731315],[109.40298741151858,12.687373433352658],[109.37642805076146,12.674201212817575],[109.3758250973888,12.638828620594154],[109.34153028604572,12.659800571715738],[109.38522969938447,12.702632488826444],[109.3632145481921,12.792825198872274],[109.30425012019894,12.750244885974038],[109.20548341651966,12.647027957871046],[109.20529223618199,12.550382339787806],[109.23227807615392,12.590787016260585],[109.24881517536288,12.585088920860578],[109.23284426407703,12.540421773023636],[109.24894753098127,12.508852844482817],[109.29830882355117,12.478127530066153],[109.29891177692384,12.430485532422976],[109.34542007060844,12.395704950111243],[109.29761763309958,12.35155581094703],[109.21596892273219,12.439957691010001],[109.18442416701568,12.459508818343533],[109.1495043430302,12.440978908107665],[109.17654900772142,12.399730617510729],[109.20680697270357,12.387002404409413],[109.2142409466032,12.332448691047265],[109.241484144722,12.304801828171385],[109.21921163538276,12.296972497089296],[109.20435839376334,12.233227829848175],[109.22459409719733,12.200252877767095],[109.20913790220524,12.185511830966037],[109.2263661918658,12.137603428862597],[109.2108511721544,12.118792313918679],[109.21421153424356,12.068367869690562],[109.24905047424001,11.99706027582761],[109.28730124795499,11.967888987429133],[109.26590375631513,11.926019086424922],[109.2773892827555,11.864598058087182],[109.22509410731125,11.878998699189019],[109.21588068565326,11.909087602950615],[109.21891015869643,12.015220179868674],[109.17642400519294,12.1288416821696],[109.1637031596476,12.111332989031396],[109.17662253862053,12.05260560579184],[109.21185119238226,12.005792422025026],[109.19852739346423,11.948826268272745],[109.1562912450177,11.89908263544307],[109.13690114692342,11.896640594557352],[109.131753983986,11.830009878996748],[109.16344580150071,11.82410458012765],[109.19731413362898,11.869881746549007],[109.20435104067343,11.788110377496952],[109.24361654079607,11.73579150155143],[109.19154931113906,11.672594443478623],[109.18413739650917,11.638657475291046],[109.13617319102228,11.569925124543945],[109.06732621018926,11.583156546070196],[109.04325954691184,11.637961863644811],[109.01970759992817,11.632840977908701],[109.0399727157218,11.601242448872297],[109.02771511484082,11.51699943843894],[109.01854581172229,11.356461150636656],[108.95166945898532,11.309707167861012],[108.90633030659652,11.323930205989342],[108.85679253986875,11.334112776470393],[108.78735731184288,11.300960221415806],[108.75781259658206,11.257758298110295],[108.72924584227935,11.181847827183963],[108.65626642491657,11.192282001877484],[108.57747071343451,11.179612989767337],[108.51350618430213,11.138142695453517],[108.47249064878076,11.052789666435745],[108.36870913778245,11.022626761435188],[108.344480706527,10.953406002510942],[108.2999062754889,10.913016126285955],[108.25896427086663,10.951615172528083],[108.10691707769509,10.91776700582726],[108.06503387756426,10.867756968537325],[108.03512150780792,10.772650576224475],[107.99856194477238,10.699404149900744],[107.93672981171407,10.719073679216613],[107.88295666519781,10.71685364204778],[107.82346281473107,10.69286244037658],[107.78179285420767,10.657785853109003],[107.66693758980398,10.604253356844517],[107.5867447912389,10.573572443171232],[107.53112601915505,10.512669423506217],[107.44815375260376,10.473774372308245],[107.33365143651578,10.454178844231336],[107.27248108154944,10.378253573057213],[107.19001617820197,10.404731216357508],[107.21639906480124,10.434553715658843],[107.17536147001013,10.477119228309288],[107.14222109378304,10.4664334494033],[107.102411465007,10.489877041906189],[107.03202768838267,10.473966775529544],[107.02531431729429,10.501288032953996],[106.99210776325798,10.48104129397423],[107.01987303076044,10.512240216320244],[107.03380713614104,10.535343403123909],[107.02481430718036,10.634963871013388],[107.01265229646822,10.673237311804087],[107.00268885963933,10.625550913417532],[107.02460842066286,10.603587345693867],[107.01193169365698,10.562753462035113],[106.99129892336781,10.56970957849746],[106.99716668911648,10.624233691364024],[106.99165187168352,10.62426329185961],[106.98438701885183,10.567030733647067],[107.0116669824202,10.521845577137398],[106.97276913679308,10.474351581972142],[106.93740077432305,10.548219618703147],[106.94323912771208,10.600020485975941],[106.88151729100244,10.652220959939125],[106.82898681668107,10.63071619989702],[106.77277244431447,10.68695714150748],[106.7367496568424,10.65851106525082],[106.77229449347028,10.603750148419582],[106.75140436503425,10.56704553389486],[106.78606683087284,10.60095290158685],[106.75196319986745,10.665259978244077],[106.77541220359238,10.66648839881083],[106.84819308752756,10.614228723856478],[106.83959732542206,10.559719411237706],[106.86836261315237,10.529541705989356],[106.86397281847573,10.487272198294756],[106.8748333322737,10.459936140622514],[106.83218541079218,10.472457150254737],[106.85950213981009,10.431371662383516],[106.84006057008644,10.405574830481664],[106.79201548061053,10.437217760261445],[106.75922805269913,10.487879008454238],[106.75140436503425,10.56704553389486],[106.74442628270907,10.552067683129126],[106.73322752677522,10.52212678184545],[106.63788000990438,10.478969259283318],[106.61560750056515,10.43678855307547],[106.65577007765688,10.473419166361232],[106.67071155635523,10.432422479976763],[106.71363154216345,10.467661869970057],[106.74119092314841,10.467513867492134],[106.7876330390238,10.39358662976996],[106.79540525505932,10.30625036754803],[106.77594162606594,10.274977443963055],[106.70438870814581,10.289008078870085],[106.5983203861853,10.28817926499372],[106.4221035864776,10.31628493555116],[106.47980328300613,10.280557137380724],[106.72044050342068,10.2002509928601],[106.79731705843608,10.157537477731735],[106.79154488285624,10.109821478849595],[106.73755849673258,10.054187347398614],[106.70449900449448,10.048903658936789],[106.70467547865233,10.083003429850079],[106.66862327882062,10.032712187852093],[106.64492427003873,9.972800784789158],[106.59129083223077,9.98125172627852],[106.54741494473417,10.015558700660902],[106.49795806199542,10.036249447074434],[106.44313342362193,10.089707942099958],[106.35969791240628,10.22104534100818],[106.33088850613652,10.249817022716268],[106.29237302118474,10.26224923086174],[106.35002859917383,10.214266827519339],[106.36905839586248,10.155509843784198],[106.46216322031059,10.035050627003264],[106.56100345488898,9.978661682914879],[106.61448247780882,9.938849016353789],[106.6968223786278,9.896150301473215],[106.68285886088756,9.855286817318877],[106.6623657993067,9.884043698779173],[106.65805688861909,9.84859710531679],[106.61113682189949,9.817442583714152],[106.56310643860341,9.84221819851834],[106.50423760077908,9.905252453865435],[106.3944486153238,9.97394040386916],[106.14484062521832,10.22869706911676],[106.11870039058611,10.2383320304295],[106.16670871461247,10.180862668252283],[106.19403279672028,10.120729261472466],[106.24618826345622,10.076861327016305],[106.28326254278551,10.050798090654194],[106.31199841815616,10.008395380729464],[106.3887646768229,9.933032518971444],[106.47514877709273,9.861724925108495],[106.51889966206083,9.801487916594132],[106.52697335478268,9.761897253749925],[106.57499638498886,9.738483261742623],[106.57595228667724,9.648423753926922],[106.5440398764652,9.584442282721124],[106.4847666186958,9.546509247629647],[106.39814721954883,9.541403162141329],[106.33783717610204,9.585300697093075],[106.25001187020975,9.630663456576249],[106.06493459715975,9.804581168382708],[105.99638909301306,9.888039765683075],[105.90443135059101,9.977004055162151],[105.83842266246349,10.004458514816731],[105.8383638377442,9.979904903729427],[105.9015121738965,9.916959449869086],[106.0730082898816,9.748606631232505],[106.093457232923,9.692602493586719],[106.19745198352872,9.540796351981848],[106.205408026812,9.457530157902779],[106.16953965422806,9.418072697288702],[106.19273129980611,9.36887667362734],[106.01807335515944,9.314826168690129],[105.8681732642418,9.255181170087454],[105.75955342008231,9.210395620268175],[105.53828423849231,9.128905455924174],[105.44342202555556,9.04168759568458],[105.42553195780306,9.00758782477129],[105.33339774122315,8.839797415550814],[105.25924182947468,8.760690091101361],[105.1837770677221,8.740265749148088],[105.10143716690312,8.633837167274185],[104.85596161332741,8.565578424456435],[104.75173156384454,8.590087634800362],[104.72017210194822,8.613279623090783],[104.75993761218479,8.616032469180137],[104.83535090230797,8.661114023955259],[104.8188799809082,8.691128926477896],[104.8449393315514,8.697966640957905],[104.91215392642427,8.68571203578594],[104.96290495298727,8.719841407194815],[104.87648408726791,8.699343064002582],[104.85315273298156,8.729357966525217],[104.9286027885543,8.747133064123682],[104.92172764948788,8.809915715258308],[104.81609315983209,8.771657074715401],[104.77490850324278,8.818041051296241],[104.81189454549313,8.936813039828861],[104.80771799042391,9.045994467792118],[104.81862997585125,9.193404935802699],[104.83357880763951,9.534624648652489],[104.8568660433864,9.737994853565478],[104.89259470726205,9.851275950167183],[104.96966244261513,9.854028796256538],[104.99305997471068,9.888143367417621],[105.07703226148982,9.944088304072238],[105.11279769081501,9.856737241602515],[105.10731963883161,9.95227284110134],[105.08806189635573,9.997324795380878],[105.00269987558349,10.091498772082817],[104.96413291900235,10.106506223344136],[104.90077869633255,10.096945263270356],[104.86909423190775,10.11603758292233],[104.80430615670538,10.207443913287122],[104.77260698610075,10.226536232939095],[104.70784832325803,10.222392163557272],[104.65145012364368,10.144542860170159],[104.60736099653968,10.154044619252769],[104.58931651389905,10.260473201126672],[104.53550660193322,10.309536022557904],[104.49957205154008,10.370883049656683],[104.52985942888188,10.399595530373604],[104.45407113117324,10.380370008491502],[104.45124754464757,10.419945871087917],[104.4939689970282,10.42820440935598],[104.55449963317231,10.518352718658432],[104.62619225980075,10.533463771654297],[104.72412071123021,10.521283167721293],[104.81928440085329,10.517257500321808],[104.85375568635422,10.530918129034033],[104.9447575270879,10.641490780289761],[105.042715390877,10.690627602959953],[105.06617910078177,10.713819591250374],[105.06618645387167,10.746572539614572],[105.01512659753242,10.848931053345613],[105.02894305347445,10.914436950074009],[105.07728226654677,10.947189898438207],[105.09798121464513,10.914422149826216],[105.20982171218547,10.891170960544628],[105.2526166954652,10.882956823019942],[105.30366184562465,10.844698182477035],[105.32714026170922,10.848768250619898],[105.35758205393914,10.9074068323727],[105.41012723444034,10.963292568036149],[105.47362116581843,10.941373401055861],[105.52335011288388,10.950845559642886],[105.63249937951693,10.973830344464215],[105.69749334123678,11.010534958988938],[105.75275916500492,11.01586304819414],[105.82155467420856,10.9201646459696],[105.86136430298458,10.83954769624534],[105.8999827311951,10.828521511640131],[105.9319466130365,10.896647052227753],[106.0172792214491,10.819966968416225],[106.07240533650892,10.796582576904505],[106.15517171654272,10.785363989077998],[106.17717951464518,10.766182867939271],[106.15132605051947,10.863154091473943],[106.12665643386939,10.909641669789327],[106.13102416927629,10.969656674586806],[106.17107645001937,10.970870294905769],[106.18766502085771,10.976272385349933],[106.16035564492971,11.05415128923263],[106.13146535467092,11.084269793489812],[106.0871556348696,11.055779316489776],[106.06241984041033,11.09270593473138],[105.97432982328125,11.189884361735142],[105.89979155085742,11.21877444542557],[105.8861221567136,11.267940868591348],[105.84470955433706,11.289889636067219],[105.87134979908319,11.412628091008157],[105.85377591419683,11.546407530802096],[105.80401020168185,11.56564785293199],[105.79023786427928,11.587522619168903],[105.80556170365298,11.624316035180378],[105.85827600522212,11.661005849457307],[105.93435107343727,11.643038348637546],[105.98302117555558,11.707005019595549],[106.01510270683556,11.77101609129693],[106.11332528186146,11.747454096811705],[106.15485553367657,11.745929671289106],[106.243327911481,11.714168339526987],[106.28744645094464,11.674414873957065],[106.353962502276,11.690473142811632],[106.41333870330415,11.661538658377829],[106.43418471320072,11.677804130701485],[106.3985369333141,11.746196075749367],[106.42116239096904,11.837498804379614],[106.4393024637785,11.863325236777051],[106.39413978554755,11.969961022120044],[106.44266282586766,11.975170709342908],[106.47440611501175,11.951815918326774],[106.50500232212978,11.973483481094595],[106.63793883462365,11.960459263037436],[106.6311004610068,11.975496314794338],[106.70173424268809,11.9709970394655],[106.749367559129,12.052531604552879],[106.80352306632062,12.06856027291186],[106.91576063071614,12.066443837477571],[106.97834277894532,12.097376355363325],[107.15302278286171,12.27745097025135],[107.22818606792794,12.31094393100516],[107.31987909911322,12.329266637771937],[107.39268204231814,12.252290549004565],[107.41625604857155,12.253444968332358],[107.44995525963186,12.299503339461769],[107.51416244073128,12.34390408283845],[107.55702360182022,12.473021444577835],[107.56528112178984,12.606549280159307],[107.54000119867716,12.71722553314958],[107.53525845568483,12.799070903440594],[107.49416938926434,12.858079491388203],[107.46741149507965,12.963324053438727],[107.48150001534837,12.982268370612779],[107.46103636612715,13.022007035934907],[107.56225164874667,13.262318659337295],[107.60653930927825,13.36956125483977],[107.61105410648337,13.400863778920332],[107.59717882582204,13.534613618218685],[107.51385361095504,13.692236257205902],[107.44368307393812,13.782917375428875],[107.43482995368575,13.870253637650805],[107.44653607282343,13.921950903189055],[107.43044751209902,13.984822355810433],[107.3719242695005,13.996307348097202],[107.34285750508387,14.021127363644766],[107.34486489862947,14.08109796769887],[107.32010704490044,14.119519410967492],[107.35906371524685,14.239105413128684],[107.35012971100545,14.320995184163076],[107.38754958556054,14.42151846716788],[107.45623479841552,14.434439083490496],[107.50500049070267,14.541622478001802],[107.50427988789143,14.601607882303696],[107.53174367870756,14.677651555460159],[107.49118403476064,14.804859685234348],[107.55800891586824,14.88728226518926],[107.46208050489446,14.956488223865712],[107.4460287096196,15.024820967922423],[107.51924342585951,15.048560565381155],[107.5781490291334,15.047894554230506],[107.58443592100696,15.103706288654994],[107.62153961269588,15.155077948741813],[107.6233484728139,15.187771696114842],[107.6572535703917,15.205087986031748],[107.65823153134981,15.282774486693146],[107.59844355728667,15.33118609722152],[107.57686223839903,15.403677710907848],[107.49415468308453,15.419617577780077],[107.48786043812105,15.481023805870025],[107.44742579670262,15.508729869737074],[107.36995364140445,15.49594245564459],[107.31616578870836,15.589213617231204],[107.24910560872362,15.630817113775153],[107.21497991844849,15.72796594028333],[107.16041263822187,15.758498851478695],[107.14952271206427,15.794049046675624],[107.17544970708906,15.848336355577512],[107.23609063958185,15.85589928219934],[107.3055920454169,15.898790400301213],[107.36068139502717,15.911829418606166],[107.39054964624407,15.936027823746457],[107.4449919239422,16.010399068902395],[107.43285197249979,16.055510224173105],[107.43166077193428,16.07324092102819],[107.32713659885499,16.056694243996482],[107.29902573612674,16.06381316318454],[107.23914217189474,16.129881469329042],[107.15491252696874,16.16620127741117],[107.12706637547727,16.200552652536928],[107.11636027656742,16.25519516738583],[107.06734457922332,16.291130169025354],[106.96720284773075,16.30026192191316],[106.95061427689242,16.33587131810126],[106.85954625834955,16.411692987540835],[106.86467136201725,16.504357338967967],[106.82251609755973,16.53064257904696],[106.79800824888767,16.479034114995468],[106.7523382074529,16.428964876714364],[106.69299141878437,16.428091662094623],[106.65520388973377,16.47067197499286],[106.64008593687755,16.5212444216989],[106.64063741862086,16.586691117436125],[106.57297428526344,16.613124359993044],[106.53534852419087,16.682951929076772],[106.53324554047643,16.950244404204387],[106.52506890449584,16.989849867296385],[106.49652420946286,16.96415663712908],[106.42019178310085,16.989243057136903],[106.38660286838919,17.046756820057496],[106.3840513461902,17.084956259609235],[106.3361533185125,17.12891299555215],[106.30670419342053,17.17683619790338],[106.30989543444173,17.227275442379288],[106.28475522003737,17.28470040381313],[106.2606517913104,17.2889480749295],[106.2220407161898,17.245553748402692],[106.18521644191748,17.25804515753933],[106.01990427454719,17.39397063326314],[105.91113736858948,17.5172418971246],[105.8461287006898,17.59799204907899],[105.78801723112628,17.64187478378294],[105.73547205062508,17.663897552497772],[105.64355842674249,17.819699761006547],[105.60522676903848,17.853917933902174],[105.5939471291156,17.88804730531105],[105.60277083700834,17.96986307510648],[105.56584361947726,18.00815131614497],[105.55171098066909,18.04774197898918],[105.4763638683551,18.12705650690772],[105.47220201946568,18.172064060443887],[105.45085599945519,18.19257720388391],[105.3923548161264,18.194072028910924],[105.36800138234247,18.150470498915027],[105.29532344166603,18.195611254681317],[105.29256603294954,18.252888213637235],[105.24688128533494,18.246139300643982],[105.1570191735374,18.319874135144854],[105.16277664293742,18.366243311477902],[105.09138549299533,18.426302717018757],[105.07997349745406,18.45495599674451],[105.10003272673019,18.551764417553464],[105.12866565884211,18.599480416435604],[105.17016649829758,18.61854313559199],[105.1129962242426,18.69769486078482],[105.06434082830411,18.69634803823573],[104.98992020531885,18.73318585499058],[104.93695589869274,18.731809431945905],[104.89971985138543,18.769979271002057],[104.81524020140246,18.774004938401543],[104.72215008313417,18.791617233274295],[104.68628906364013,18.82429618039953],[104.64617060508786,18.83240671618967],[104.54427883819658,18.907192368283795],[104.48102020569561,18.977937552730637],[104.40068769842223,18.992693399779487],[104.35459853086255,19.048445933212804],[104.30289160261115,19.068722272688156],[104.25970690556616,19.104006063424826],[104.21094856636891,19.101075614361967],[104.19781594778857,19.147385589703845],[104.14741786954127,19.18261017944934],[104.03663621694805,19.22977856916317],[103.97206873444301,19.2253384948255],[103.91731027387871,19.25775103749048],[103.89265536340845,19.294411251271825],[103.84810299164008,19.299591337999104],[103.86945636474049,19.32700139691031],[103.92098681883402,19.353212635750342],[103.95234774730277,19.391574878027797],[104.03843037088625,19.41387885145068],[104.06109259399074,19.471259412141144],[104.08977699773202,19.483676820038824],[104.07210016958692,19.558580874115282],[104.0171872941345,19.60055437685404],[103.99815749744585,19.652266442640077],[104.0224521065105,19.68103812434817],[104.08883580222346,19.65139322802034],[104.1361382296184,19.687076625447396],[104.22962541474186,19.70658335203755],[104.27723667191304,19.683598567216222],[104.29464143573145,19.655034088977224],[104.3420247471154,19.682488548631806],[104.37944462167049,19.685344996455704],[104.41555564622148,19.651378427772546],[104.5063810127973,19.60256721055378],[104.6228980755208,19.61784106627536],[104.65439135960793,19.698369214512866],[104.69175240944372,19.735251432011097],[104.7363783121112,19.746233215872927],[104.80545323873145,19.79131477064805],[104.81690935281216,19.84860652985176],[104.76068762735567,19.860801934032555],[104.78079832826117,19.90856233365807],[104.85860872569522,19.955005511230077],[104.87445463445258,19.982282367911154],[104.94512518158344,19.991872928480518],[104.94365456360131,20.066865784043728],[104.95664012038344,20.091419395131034],[104.90465377471544,20.135020925126934],[104.90751412669067,20.17594361027244],[104.81937263793222,20.220862362321853],[104.69085533247463,20.196145948508832],[104.65759730680895,20.212441021328075],[104.65745024501074,20.279249339862183],[104.68200221222226,20.287478277634662],[104.68045071025111,20.340655567952133],[104.61241256930826,20.377330581981273],[104.57616183604897,20.41406479700158],[104.43298982239953,20.41092714446963],[104.35911332806766,20.43931401973512],[104.36626788455068,20.458421139634886],[104.42399699343886,20.49543655936324],[104.44556360614666,20.535056822703034],[104.49629257343994,20.51202763713833],[104.54253615588776,20.535338027411086],[104.60745658670851,20.618663422481326],[104.61464055555118,20.64321703356863],[104.60011084988781,20.660918129928135],[104.49277779646268,20.701544810117795],[104.45197550054871,20.764135058031123],[104.38961394501686,20.770735968546454],[104.33576726760148,20.81962118700418],[104.2948840876985,20.87944378858036],[104.25997896989284,20.898388105754414],[104.22083847229868,20.89140238879648],[104.19452176350862,20.929453825870297],[104.0927476460559,20.96165916506618],[104.05648220661679,20.95872871600332],[104.01037097978737,20.908023067067152],[103.95239186584223,20.900874547383506],[103.77593976725738,20.834258632070693],[103.75318195398405,20.779571716478415],[103.75922619389057,20.749616014946948],[103.70729131985195,20.72196915207107],[103.71496059262871,20.67158910858633],[103.66581989275612,20.658949696971767],[103.57822988574097,20.73321734039316],[103.49692677059937,20.74889080280513],[103.42663123105397,20.820509201871715],[103.36320347748507,20.787193844091412],[103.26275291621626,20.82573368934237],[103.22649482986706,20.82672530594445],[103.14652262399929,20.846320834021355],[103.11580876744269,20.86779599356788],[103.06859457712667,20.931318657092117],[103.01491702077924,21.041092094967063],[102.95211427985274,21.06897576180762],[102.91456940276917,21.158458059959422],[102.88976007741078,21.166331791784888],[102.88745856026877,21.226257995095615],[102.85075193543501,21.25168482080266],[102.80128034651645,21.25513327853825],[102.82845736682606,21.285458986264523],[102.87470094927386,21.305128515580392],[102.88367907205472,21.388365109163875],[102.91642973451657,21.439203960330175],[102.90459125976048,21.45268698606889],[102.84966367812825,21.42609094078626],[102.89525283557401,21.49480849128557],[102.97422502121394,21.57481863085035],[102.96029091583334,21.63325000913406],[102.96225419083947,21.701405150217266],[102.9471656503429,21.736644540210555],[102.86449486047795,21.70562322083805],[102.83517073791444,21.716146197018325],[102.82630291148224,21.820946751635084],[102.78983158552563,21.820473143705733],[102.7866844630439,21.740033796954975],[102.75260289130823,21.680980808263993],[102.7208375428944,21.661474081673838],[102.65093171711426,21.657774019725778],[102.62935039822662,21.729673623500418],[102.63422549683736,21.788341805748807],[102.59148933827692,21.900794088474147],[102.56042253340459,21.92485929138431],[102.4780752794957,21.957686240987464],[102.46572208844587,21.995634076326738],[102.4827886101284,22.0217861141756],[102.42216238381543,22.06170238247124],[102.38899259522869,22.117040508966372],[102.28652728732438,22.199818294868297],[102.22598929809034,22.228767579549896],[102.15422314056282,22.305151658405578],[102.11866359775512,22.39714999868206],[102.1649660049222,22.42519646824833],[102.21798178317769,22.411136232845713],[102.25296043188246,22.494831634110756],[102.32488835738802,22.565502817318638],[102.38382337302153,22.629143882825215],[102.35684488613951,22.658670377170708],[102.39458094356075,22.68107795232814],[102.44292750972299,22.764950956566686],[102.51525250208373,22.745666233693417],[102.53524555355067,22.69556739491673],[102.58628335062019,22.715414527206107],[102.61313683497373,22.69130492355257],[102.69276344561571,22.670673378130203],[102.75222788372278,22.62519221666469],[102.81267028278798,22.60831993418155],[102.84530329581126,22.58558675357269],[102.89376015832217,22.486765499063992],[102.98977680637488,22.437584275650423],[103.04542499081835,22.440988332642632],[103.04479262508603,22.48595148543542],[103.14235342201998,22.537530348991332],[103.13006640877936,22.578260630915537],[103.14141957960133,22.607002712128043],[103.22885517172837,22.655695527364472],[103.25205417039633,22.67910951937177],[103.30945974332845,22.787388132219704],[103.34479869343882,22.78231164722697],[103.40116012760363,22.737910903850292],[103.40466755149099,22.688877682914644],[103.44805078196357,22.618443303671434],[103.50423574197052,22.580821073783596],[103.55050138368807,22.648028999008098],[103.54416302018512,22.691571328012827],[103.59037719027329,22.768310612815526],[103.64739304944014,22.798784323019717],[103.72607111148363,22.716302542073638],[103.79414601787605,22.659587992533826],[103.86679454619285,22.57561138656073],[103.89472893476324,22.568980875549812],[103.9170235033722,22.53369708481314],[103.95977436811248,22.506716233087914],[103.98602489909335,22.527332978262486],[103.9857160693171,22.569587685709294],[104.00730474129465,22.629691491993526],[104.02428302589824,22.71976580005702],[104.07381343953608,22.78275565466074],[104.21322067115129,22.824388751700273],[104.2411624128116,22.8245219539304],[104.22815479675974,22.78356966828931],[104.24904492519578,22.72778753436041],[104.34034824261579,22.685932433603988],[104.36234868762833,22.69284414932296],[104.44881367188715,22.74495582179939],[104.55285989412225,22.83661375637665],[104.57941925487937,22.80942570118233],[104.61025076087455,22.823130730637935],[104.66322242059056,22.810979727200515],[104.72786343399471,22.83973660866081],[104.77482761925376,22.895696345563223],[104.82334330648395,22.924379225784556],[104.82772574807068,22.9543793280594],[104.79809279573092,23.085198718294894],[104.86141025295116,23.11934288995156],[104.87021190157417,23.162974020443045],[104.94539724591013,23.16029517559265],[104.98077296147005,23.190280477619705],[105.06041427829184,23.23253518506651],[105.21680714760055,23.265110530457203],[105.23608694934617,23.319605042828183],[105.28044814077685,23.35904770319447],[105.3114634740198,23.365811416435513],[105.33201536031996,23.318065817057793],[105.3894503456117,23.275677907380853],[105.43073794545977,23.267389768617207],[105.47326821750272,23.195031357161007],[105.51739411005627,23.167621298249806],[105.5348135800545,23.099421756423226],[105.56557155515058,23.05432540140031],[105.69072114542912,23.044290833397177],[105.75531068720389,23.005824989385182],[105.85332002262238,22.90447289250401],[105.88732806345894,22.93018092291911],[105.9446968709415,22.927117271626116],[105.99949945004525,22.975854487605922],[106.07755249944636,22.980797770368525],[106.17017201996036,22.966515531249026],[106.20237855376882,22.94718640763238],[106.23399684038444,22.863801811570973],[106.31626321030431,22.853604440842126],[106.45781019108351,22.88916943628685],[106.48762697067102,22.925696447838064],[106.58143033866064,22.89480833069569],[106.61034268818915,22.852272418540828],[106.66788061673965,22.868019882191756],[106.73173484952336,22.800575153002576],[106.7904786848192,22.797200696505953],[106.79162576684527,22.772661885666437],[106.74718369142555,22.744526614613413],[106.73481579419591,22.695611795660106],[106.697300329472,22.63059430710885],[106.68052057829598,22.57898584305736],[106.64664489307782,22.5684332663815],[106.60750439548366,22.609725957721814],[106.56894479199244,22.57466417070203],[106.53330436519572,22.40329210151583],[106.55596658830021,22.33220651136977],[106.61738694832351,22.323429964428975],[106.63905650429007,22.29732232732349],[106.66307904902803,22.22348389108807],[106.6392844500773,22.191012147431923],[106.67177775439228,22.09256089911803],[106.64872581752252,21.996033683017124],[106.67462340018768,21.96169710813916],[106.72193318067252,22.00754827579948],[106.7814564434989,21.975564940320474],[106.86463459656768,21.967824410725143],[106.92092249983338,21.916748755594167],[106.9708352741466,21.93524906533445],[107.00870368718623,21.927967343420676],[107.02135100183247,21.892387547728163],[106.98711501520867,21.845100756031997],[107.00268885963933,21.81085298264078],[107.06523424241897,21.796452341538945],[107.17197169556135,21.714695772734686],[107.21264898894682,21.70461680398818],[107.27265020261738,21.718795441373132],[107.30279051816096,21.688395732407898],[107.33365143651578,21.61303287064988],[107.34799731493138,21.59920943921194],[107.40996180360807,21.646007822730958],[107.44641107029494,21.646836636607325],[107.46158049478053,21.596204988910117],[107.50941234464904,21.581863548799447],[107.53318488433003,21.608740798790134],[107.61326003345654,21.606150755426494],[107.69082777892355,21.62534667681301],[107.74532888134097,21.657137609070716],[107.83241152515228,21.639332910976666],[107.85496345190812,21.6008078659735],[107.99095884980481,21.48536593319413],[107.9289870080382,21.442889222030438],[107.91884709705148,21.517970879080405],[107.86230918872882,21.529855478057563],[107.84849273278678,21.493313666258558],[107.82085246781281,21.49378727418791],[107.78358700814586,21.52437938637444],[107.78671207135787,21.458932690637212],[107.76771904011876,21.455173427697986],[107.74796864061888,21.410535880356633],[107.63547371807648,21.383732631604907],[107.64201061500702,21.342765545716023],[107.60842905338528,21.335113817607443],[107.59906121683916,21.29848320432168],[107.5627001872312,21.297669190693107],[107.53445696888457,21.34578479626564],[107.50456665839795,21.29855720556064],[107.41491778620782,21.328468506348734],[107.44343306888115,21.293998729240634],[107.3674977093743,21.27327838233152],[107.35457097731147,21.191714216748558],[107.3878731215166,21.18443249483478],[107.37516698215107,21.116484557220666],[107.35430626607469,21.082710391758805],[107.37376254197815,21.027934674679774],[107.3342249775288,21.00531989605325],[107.24566436264546,21.002419047485972],[107.19269270292943,20.952690214904095],[107.14887564015213,20.931451859322245],[107.06665338877171,20.96516682379294],[107.09471277987059,21.00025821130831],[107.14888299324204,21.033662370575364],[107.12280158332912,21.036711221620564],[107.05717525587694,21.01434804720651],[107.02550549763195,21.03381037305329],[107.03955725245113,20.999562599662077],[107.01722591839261,20.95758909692332],[106.94754068530979,20.954303441913446],[106.87408331710282,20.997386963236618],[106.85370055187062,20.992162475765962],[106.92267253523211,20.93824517305888],[106.94254058417057,20.9039381986765],[106.88750270618968,20.910006300271313],[106.868311141523,20.88296624755491],[106.83272218635565,20.93786036661628],[106.8065451862739,20.932695080136796],[106.77202242914359,20.95758909692332],[106.81714098883508,20.969384894413725],[106.78574329491678,21.013326830108845],[106.73077894783499,21.03024351333536],[106.71743308964723,21.00585270497377],[106.6507920357874,21.0174116984995],[106.67626313923775,20.958551113029813],[106.75583827825034,20.938674380244855],[106.73778644251979,20.8829810478027],[106.71771986015375,20.90362739347286],[106.7000797974582,20.883351053997508],[106.75307351644395,20.825570886616656],[106.72513177478365,20.790420298110117],[106.78820658003683,20.73116010595004],[106.80640547756559,20.677820012906857],[106.76772087154588,20.713651412811835],[106.74145563438519,20.697563543461683],[106.66317463919687,20.691525042362457],[106.70337398173815,20.659793311095925],[106.65381415574066,20.63028161699822],[106.59318057633779,20.64721310047253]],[[106.94790098671541,20.869808827267622],[106.99405633208428,20.85156012173981],[107.02319662740003,20.862127498663455],[107.04308673560821,20.83190539267173],[107.08788175934365,20.821826423925224],[107.09466130824121,20.787667452020763],[107.03641012996938,20.766562298669047],[107.06805782894465,20.74983801866383],[107.04571178870631,20.703764847286628],[106.9971152174871,20.753404878381758],[106.98541645143932,20.745353543582787],[106.90954726974168,20.818451967428594],[106.94790098671541,20.869808827267622]],[[107.4464404826546,21.21221255994079],[107.4517861790196,21.27207956226035],[107.46784532738437,21.275927626686325],[107.52377292924444,21.231512083061855],[107.52909656633973,21.20281440259273],[107.60348042387544,21.21939068012002],[107.54718516751983,21.1562232225428],[107.52402293430141,21.160648496632675],[107.47066156082013,21.096045415019603],[107.38859372432785,21.048166613411748],[107.37280664028977,21.059296399751503],[107.40292489656362,21.12699273315315],[107.4185722718934,21.196257892820768],[107.4464404826546,21.21221255994079]],[[109.32871385033154,12.221772438056993],[109.34913338101329,12.201037290900082],[109.28805126312588,12.18838307903773],[109.24580040849952,12.228506550802456],[109.27358038218179,12.234885457600905],[109.32871385033154,12.221772438056993]],[[109.4051418668624,12.570303473316143],[109.3842223260667,12.562474142234056],[109.31165468173893,12.614023405294382],[109.32019897221505,12.627491630785308],[109.38249434993772,12.623747168093875],[109.4051418668624,12.570303473316143]],[[106.73849969224112,10.228800670851307],[106.69041783731566,10.252244263354193],[106.55967989870507,10.274725839750586],[106.70294014943343,10.275362250405653],[106.74694839254842,10.26285604102122],[106.73849969224112,10.228800670851307]],[[107.20264143357849,10.43738056298716],[107.16650099666785,10.39124819061879],[107.1361033229774,10.377824365871238],[107.08752881102794,10.323581457712727],[107.07970512336304,10.3904637774858],[107.15569930758917,10.422698717177271],[107.17252317730464,10.464864623137325],[107.20264143357849,10.43738056298716]],[[108.96596386577154,10.517035496604924],[108.93964715698147,10.503744874087506],[108.9262204148047,10.529778509954031],[108.94300751907062,10.551357271235098],[108.96596386577154,10.517035496604924]],[[106.9481730510421,10.50723773256647],[106.9214813346666,10.425555165001171],[106.93672429005129,10.439097391731059],[106.9778427688314,10.4047460166053],[106.88808360029262,10.371193854860321],[106.8746274457562,10.425836369709224],[106.89278222474549,10.465279030075507],[106.88888508709287,10.504869692919714],[106.9275843992924,10.52100196301324],[106.9481730510421,10.50723773256647]],[[106.92242988326507,10.57968494550942],[106.92220193747784,10.54286192900236],[106.89484108992046,10.577124502641366],[106.90278242702392,10.522511588288049],[106.85614913081085,10.562353855344723],[106.87728191121393,10.635881486376507],[106.92943737794987,10.597371241621133],[106.92242988326507,10.57968494550942]],[[106.5438266368578,9.838222131614438],[106.52044381094206,9.838325733348984],[106.49722275300437,9.875267151838383],[106.42179475670136,9.932899316741315],[106.48634017993666,9.902603209510627],[106.5438266368578,9.838222131614438]],[[106.6693659409016,8.753008762497196],[106.63913003518918,8.738134513466008],[106.65540977625126,8.698499449878424],[106.60191604715159,8.694636585204654],[106.59899687045709,8.652352277262262],[106.559356362749,8.681168359713727],[106.5979674378696,8.732850825004183],[106.65845395547426,8.766698991705006],[106.6693659409016,8.753008762497196]],[[106.1073913383036,9.747141406701076],[106.15530407216112,9.678749461653194],[106.21010665126488,9.621250498980393],[106.2924759644435,9.586839922863465],[106.28406402958576,9.543208792371981],[106.24416616373081,9.535172257820802],[106.24975451206286,9.559711068660313],[106.19769463549576,9.610387117100899],[106.22640109850678,9.565246361334607],[106.19618725206409,9.57217287730137],[106.12639907572252,9.672030149155523],[106.1073913383036,9.747141406701076]],[[108.54233764984161,15.925638049796312],[108.48809390557106,15.963289880179738],[108.50800607304899,15.975218879900272],[108.53859492707711,15.952929706725179],[108.54233764984161,15.925638049796312]],[[104.00994450057256,10.02997414201053],[103.98338513981544,10.158159088139007],[103.93757538967235,10.265816090579666],[103.8574708281862,10.321494622774024],[103.84625736607252,10.371933867249933],[103.9331047110067,10.366783381018237],[104.0045032140387,10.451618401363282],[104.08193860388731,10.37132705709045],[104.0850489609195,10.248529401158345],[104.04676142175497,10.15152857712809],[104.03315820542034,10.095539239730096],[104.05113651025178,10.069668406589283],[104.05131298440963,10.008262178499333],[104.00994450057256,10.02997414201053]]]}}]}